start=new Date('2023-02-27T00:00:00.000Z').valueOf();
sats=[{"BSTAR":"0.00035499000000","TLE_LINE2":"2 51735  53.2149 247.8989 0001076  77.6583 282.4529 15.08852657 57588","FILE":"3842901","MEAN_MOTION_DDOT":"0.0000000000000","NORAD_CAT_ID":"51735","TIME_SYSTEM":"UTC","MEAN_ELEMENT_THEORY":"SGP4","OBJECT_ID":"2022-016X","CLASSIFICATION_TYPE":"U","APOAPSIS":"540.451","OBJECT_TYPE":"PAYLOAD","CENTER_NAME":"EARTH","TLE_LINE1":"1 51735U 22016X   23057.85412650  .00005368  00000-0  35499-3 0  9995","LAUNCH_DATE":"2022-02-21","DECAY_DATE":null,"OBJECT_NAME":"STARLINK-3517","MEAN_MOTION_DOT":"0.00005368","COUNTRY_CODE":"US","ECCENTRICITY":"0.00010760","MEAN_MOTION":"15.08852657","GP_ID":"227035339","INCLINATION":"53.2149","MEAN_ANOMALY":"282.4529","RA_OF_ASC_NODE":"247.8989","SITE":"AFETR","ARG_OF_PERICENTER":"77.6583","ELEMENT_SET_NO":"999","REF_FRAME":"TEME","EPOCH":"2023-02-26T20:29:56.529600","SEMIMAJOR_AXIS":"6917.842","RCS_SIZE":"LARGE","REV_AT_EPOCH":"5758","PERIOD":"95.437","EPHEMERIS_TYPE":"0","PERIAPSIS":"538.962"},{"TLE_LINE2":"2 51736  53.2148 247.6660 0001205  83.0555 277.0574 15.08852110 56477","BSTAR":"0.00032619000000","FILE":"3843368","MEAN_MOTION_DDOT":"0.0000000000000","NORAD_CAT_ID":"51736","TIME_SYSTEM":"UTC","MEAN_ELEMENT_THEORY":"SGP4","OBJECT_ID":"2022-016Y","CLASSIFICATION_TYPE":"U","APOAPSIS":"540.542","OBJECT_TYPE":"PAYLOAD","CENTER_NAME":"EARTH","TLE_LINE1":"1 51736U 22016Y   23057.90564407  .00004909  00000-0  32619-3 0  9991","LAUNCH_DATE":"2022-02-21","DECAY_DATE":null,"OBJECT_NAME":"STARLINK-3447","MEAN_MOTION_DOT":"0.00004909","COUNTRY_CODE":"US","ECCENTRICITY":"0.00012050","MEAN_MOTION":"15.08852110","GP_ID":"227067874","MEAN_ANOMALY":"277.0574","INCLINATION":"53.2148","SITE":"AFETR","RA_OF_ASC_NODE":"247.6660","ELEMENT_SET_NO":"999","ARG_OF_PERICENTER":"83.0555","REF_FRAME":"TEME","EPOCH":"2023-02-26T21:44:07.647648","RCS_SIZE":"LARGE","SEMIMAJOR_AXIS":"6917.843","REV_AT_EPOCH":"5647","PERIOD":"95.437","EPHEMERIS_TYPE":"0","PERIAPSIS":"538.875"},{"EPOCH":"2023-02-26T18:49:15.292992","RCS_SIZE":"LARGE","SEMIMAJOR_AXIS":"6917.856","REF_FRAME":"TEME","REV_AT_EPOCH":"5645","PERIOD":"95.437","PERIAPSIS":"538.843","EPHEMERIS_TYPE":"0","ECCENTRICITY":"0.00012690","COUNTRY_CODE":"US","MEAN_MOTION_DOT":"0.00002501","OBJECT_NAME":"STARLINK-3509","GP_ID":"227068094","MEAN_MOTION":"15.08847996","SITE":"AFETR","ELEMENT_SET_NO":"999","RA_OF_ASC_NODE":"248.2129","ARG_OF_PERICENTER":"89.5754","MEAN_ANOMALY":"270.5384","INCLINATION":"53.2146","CLASSIFICATION_TYPE":"U","APOAPSIS":"540.599","CENTER_NAME":"EARTH","OBJECT_TYPE":"PAYLOAD","TLE_LINE1":"1 51737U 22016Z   23057.78420478  .00002501  00000-0  17513-3 0  9999","DECAY_DATE":null,"LAUNCH_DATE":"2022-02-21","MEAN_MOTION_DDOT":"0.0000000000000","FILE":"3843368","TLE_LINE2":"2 51737  53.2146 248.2129 0001269  89.5754 270.5384 15.08847996 56456","BSTAR":"0.00017513000000","TIME_SYSTEM":"UTC","MEAN_ELEMENT_THEORY":"SGP4","NORAD_CAT_ID":"51737","OBJECT_ID":"2022-016Z"},{"CLASSIFICATION_TYPE":"U","APOAPSIS":"540.567","CENTER_NAME":"EARTH","OBJECT_TYPE":"PAYLOAD","TLE_LINE1":"1 51738U 22016AA  23057.83204884  .00003236  00000-0  22130-3 0  9994","DECAY_DATE":null,"LAUNCH_DATE":"2022-02-21","MEAN_MOTION_DDOT":"0.0000000000000","FILE":"3842901","TLE_LINE2":"2 51738  53.2143 247.9990 0001206  82.8529 277.2600 15.08844242 57573","BSTAR":"0.00022130000000","TIME_SYSTEM":"UTC","MEAN_ELEMENT_THEORY":"SGP4","NORAD_CAT_ID":"51738","OBJECT_ID":"2022-016AA","EPOCH":"2023-02-26T19:58:09.019776","SEMIMAJOR_AXIS":"6917.867","RCS_SIZE":"LARGE","REF_FRAME":"TEME","REV_AT_EPOCH":"5757","PERIOD":"95.437","PERIAPSIS":"538.898","EPHEMERIS_TYPE":"0","COUNTRY_CODE":"US","ECCENTRICITY":"0.00012060","OBJECT_NAME":"STARLINK-3515","MEAN_MOTION_DOT":"0.00003236","GP_ID":"227035340","MEAN_MOTION":"15.08844242","SITE":"AFETR","RA_OF_ASC_NODE":"247.9990","ARG_OF_PERICENTER":"82.8529","ELEMENT_SET_NO":"999","INCLINATION":"53.2143","MEAN_ANOMALY":"277.2600"},{"EPHEMERIS_TYPE":"0","PERIAPSIS":"538.873","PERIOD":"95.437","REV_AT_EPOCH":"5647","REF_FRAME":"TEME","EPOCH":"2023-02-26T21:49:25.627296","SEMIMAJOR_AXIS":"6917.833","RCS_SIZE":"LARGE","INCLINATION":"53.2132","MEAN_ANOMALY":"273.9758","SITE":"AFETR","RA_OF_ASC_NODE":"247.6518","ELEMENT_SET_NO":"999","ARG_OF_PERICENTER":"86.1371","MEAN_MOTION":"15.08855409","GP_ID":"227066622","MEAN_MOTION_DOT":"0.00007327","OBJECT_NAME":"STARLINK-3516","ECCENTRICITY":"0.00011930","COUNTRY_CODE":"US","LAUNCH_DATE":"2022-02-21","DECAY_DATE":null,"TLE_LINE1":"1 51739U 22016AB  23057.90932439  .00007327  00000-0  47778-3 0  9997","OBJECT_TYPE":"PAYLOAD","CENTER_NAME":"EARTH","CLASSIFICATION_TYPE":"U","APOAPSIS":"540.524","OBJECT_ID":"2022-016AB","NORAD_CAT_ID":"51739","TIME_SYSTEM":"UTC","MEAN_ELEMENT_THEORY":"SGP4","BSTAR":"0.00047778000000","TLE_LINE2":"2 51739  53.2132 247.6518 0001193  86.1371 273.9758 15.08855409 56474","FILE":"3843368","MEAN_MOTION_DDOT":"0.0000000000000"},{"COUNTRY_CODE":"US","ECCENTRICITY":"0.00010720","MEAN_MOTION_DOT":"0.00002873","OBJECT_NAME":"STARLINK-3500","GP_ID":"227067374","MEAN_MOTION":"15.08850260","SITE":"AFETR","ARG_OF_PERICENTER":"83.2459","RA_OF_ASC_NODE":"248.0317","ELEMENT_SET_NO":"999","INCLINATION":"53.2146","MEAN_ANOMALY":"276.8655","EPOCH":"2023-02-26T19:47:32.828928","SEMIMAJOR_AXIS":"6917.849","RCS_SIZE":"LARGE","REF_FRAME":"TEME","REV_AT_EPOCH":"5646","PERIOD":"95.437","PERIAPSIS":"538.972","EPHEMERIS_TYPE":"0","MEAN_MOTION_DDOT":"0.0000000000000","FILE":"3843368","TLE_LINE2":"2 51740  53.2146 248.0317 0001072  83.2459 276.8655 15.08850260 56461","BSTAR":"0.00019846000000","MEAN_ELEMENT_THEORY":"SGP4","TIME_SYSTEM":"UTC","NORAD_CAT_ID":"51740","OBJECT_ID":"2022-016AC","CLASSIFICATION_TYPE":"U","APOAPSIS":"540.456","CENTER_NAME":"EARTH","OBJECT_TYPE":"PAYLOAD","TLE_LINE1":"1 51740U 22016AC  23057.82468552  .00002873  00000-0  19846-3 0  9996","DECAY_DATE":null,"LAUNCH_DATE":"2022-02-21"},{"FILE":"3843368","MEAN_MOTION_DDOT":"0.0000000000000","BSTAR":"0.00016136000000","TLE_LINE2":"2 51741  53.2140 247.6852 0001237  84.5723 275.5410 15.08841375 56479","OBJECT_ID":"2022-016AD","MEAN_ELEMENT_THEORY":"SGP4","TIME_SYSTEM":"UTC","NORAD_CAT_ID":"51741","CENTER_NAME":"EARTH","OBJECT_TYPE":"PAYLOAD","CLASSIFICATION_TYPE":"U","APOAPSIS":"540.597","DECAY_DATE":null,"LAUNCH_DATE":"2022-02-21","TLE_LINE1":"1 51741U 22016AD  23057.90196978  .00002281  00000-0  16136-3 0  9998","GP_ID":"227067594","MEAN_MOTION":"15.08841375","ECCENTRICITY":"0.00012370","COUNTRY_CODE":"US","MEAN_MOTION_DOT":"0.00002281","OBJECT_NAME":"STARLINK-3520","SITE":"AFETR","ELEMENT_SET_NO":"999","RA_OF_ASC_NODE":"247.6852","ARG_OF_PERICENTER":"84.5723","MEAN_ANOMALY":"275.5410","INCLINATION":"53.2140","REV_AT_EPOCH":"5647","EPOCH":"2023-02-26T21:38:50.188992","RCS_SIZE":"LARGE","SEMIMAJOR_AXIS":"6917.876","REF_FRAME":"TEME","PERIAPSIS":"538.885","EPHEMERIS_TYPE":"0","PERIOD":"95.437"},{"MEAN_ANOMALY":"187.2145","INCLINATION":"53.2145","ELEMENT_SET_NO":"999","SITE":"AFETR","ARG_OF_PERICENTER":"80.5941","RA_OF_ASC_NODE":"247.2154","MEAN_MOTION_DOT":"0.00026133","OBJECT_NAME":"STARLINK-3521","COUNTRY_CODE":"US","ECCENTRICITY":"0.00013240","MEAN_MOTION":"15.08808331","GP_ID":"227066873","PERIOD":"95.440","EPHEMERIS_TYPE":"0","PERIAPSIS":"538.926","REF_FRAME":"TEME","EPOCH":"2023-02-27T00:00:00.999648","SEMIMAJOR_AXIS":"6917.977","RCS_SIZE":"LARGE","REV_AT_EPOCH":"130","NORAD_CAT_ID":"51742","TIME_SYSTEM":"UTC","MEAN_ELEMENT_THEORY":"SGP4","OBJECT_ID":"2022-016AE","TLE_LINE2":"2 51742  53.2145 247.2154 0001324  80.5941 187.2145 15.08808331  1302","BSTAR":"0.00165540000000","MEAN_MOTION_DDOT":"0.0000000000000","FILE":"3843368","TLE_LINE1":"1 51742U 22016AE  23058.00001157  .00026133  00000-0  16554-2 0  9990","LAUNCH_DATE":"2022-02-21","DECAY_DATE":null,"CLASSIFICATION_TYPE":"U","APOAPSIS":"540.758","OBJECT_TYPE":"PAYLOAD","CENTER_NAME":"EARTH"},{"OBJECT_TYPE":"PAYLOAD","CENTER_NAME":"EARTH","CLASSIFICATION_TYPE":"U","APOAPSIS":"540.603","LAUNCH_DATE":"2022-02-21","DECAY_DATE":null,"TLE_LINE1":"1 51743U 22016AF  23057.84864443  .00003359  00000-0  22900-3 0  9995","BSTAR":"0.00022900000000","TLE_LINE2":"2 51743  53.2168 237.9316 0001277  83.9700 276.1438 15.08848599 57732","FILE":"3842923","MEAN_MOTION_DDOT":"0.0000000000000","OBJECT_ID":"2022-016AF","NORAD_CAT_ID":"51743","TIME_SYSTEM":"UTC","MEAN_ELEMENT_THEORY":"SGP4","REV_AT_EPOCH":"5773","REF_FRAME":"TEME","EPOCH":"2023-02-26T20:22:02.878752","RCS_SIZE":"LARGE","SEMIMAJOR_AXIS":"6917.854","EPHEMERIS_TYPE":"0","PERIAPSIS":"538.836","PERIOD":"95.437","MEAN_MOTION":"15.08848599","GP_ID":"227035348","OBJECT_NAME":"STARLINK-3512","MEAN_MOTION_DOT":"0.00003359","ECCENTRICITY":"0.00012770","COUNTRY_CODE":"US","INCLINATION":"53.2168","MEAN_ANOMALY":"276.1438","RA_OF_ASC_NODE":"237.9316","SITE":"AFETR","ARG_OF_PERICENTER":"83.9700","ELEMENT_SET_NO":"999"},{"PERIOD":"95.437","PERIAPSIS":"538.905","EPHEMERIS_TYPE":"0","SEMIMAJOR_AXIS":"6917.841","RCS_SIZE":"LARGE","EPOCH":"2023-02-26T19:33:01.585152","REF_FRAME":"TEME","REV_AT_EPOCH":"5646","RA_OF_ASC_NODE":"248.0769","SITE":"AFETR","ARG_OF_PERICENTER":"89.4625","ELEMENT_SET_NO":"999","MEAN_ANOMALY":"270.6500","INCLINATION":"53.2138","COUNTRY_CODE":"US","ECCENTRICITY":"0.00011580","OBJECT_NAME":"STARLINK-3452","MEAN_MOTION_DOT":"0.00005125","GP_ID":"227067875","MEAN_MOTION":"15.08852751","TLE_LINE1":"1 51744U 22016AG  23057.81460168  .00005125  00000-0  33971-3 0  9992","DECAY_DATE":null,"LAUNCH_DATE":"2022-02-21","APOAPSIS":"540.508","CLASSIFICATION_TYPE":"U","CENTER_NAME":"EARTH","OBJECT_TYPE":"PAYLOAD","TIME_SYSTEM":"UTC","MEAN_ELEMENT_THEORY":"SGP4","NORAD_CAT_ID":"51744","OBJECT_ID":"2022-016AG","FILE":"3843368","MEAN_MOTION_DDOT":"0.0000000000000","BSTAR":"0.00033971000000","TLE_LINE2":"2 51744  53.2138 248.0769 0001158  89.4625 270.6500 15.08852751 56463"}];
